{"type": "FeatureCollection", "features": [ {"type": "Feature", "properties": {"norad_id": 34683, "name": "COSMOS 2251 DEB", "group": "cosmos-2251-debris", "lat": -36.8527307112481, "lon": -82.32626600576162, "alt_km": 672.4944606075678, "timestamp": "2025-12-16T08:59:43.556558+00:00", "meta": {"OBJECT_NAME": "COSMOS 2251 DEB", "OBJECT_ID": "1993-036YD", "EPOCH": "2025-12-15T17:48:24.087744", "MEAN_MOTION": 14.6453125, "ECCENTRICITY": 0.00180338, "INCLINATION": 74.0291, "RA_OF_ASC_NODE": 86.4948, "ARG_OF_PERICENTER": 201.5061, "MEAN_ANOMALY": 281.6435, "EPHEMERIS_TYPE": 0, "CLASSIFICATION_TYPE": "U", "NORAD_CAT_ID": 34683, "ELEMENT_SET_NO": 999, "REV_AT_EPOCH": 88392, "BSTAR": 0.00085127501, "MEAN_MOTION_DOT": 4.497e-05, "MEAN_MOTION_DDOT": 0}, "tle": {"line1": "1 34683U 93036YD  25349.74194546  .00004497  00000+0  85128-3 0  9998", "line2": "2 34683  74.0291  86.4948 0018033 201.5061 281.6435 14.64531250883928"}}, "geometry": {"type": "Point", "coordinates": [-82.32626600576162, -36.8527307112481]}}, {"type": "Feature", "properties": {"norad_id": 34685, "name": "COSMOS 2251 DEB", "group": "cosmos-2251-debris", "lat": -72.25910996957545, "lon": 78.33880106291917, "alt_km": 699.4933491105257, "timestamp": "2025-12-16T08:59:43.556568+00:00", "meta": {"OBJECT_NAME": "COSMOS 2251 DEB", "OBJECT_ID": "1993-036YF", "EPOCH": "2025-12-15T20:44:32.178912", "MEAN_MOTION": 14.57537762, "ECCENTRICITY": 0.00142599, "INCLINATION": 74.0286, "RA_OF_ASC_NODE": 142.8414, "ARG_OF_PERICENTER": 247.0593, "MEAN_ANOMALY": 232.8559, "EPHEMERIS_TYPE": 0, "CLASSIFICATION_TYPE": "U", "NORAD_CAT_ID": 34685, "ELEMENT_SET_NO": 999, "REV_AT_EPOCH": 88577, "BSTAR": 0.00074771961, "MEAN_MOTION_DOT": 3.378e-05, "MEAN_MOTION_DDOT": 0}, "tle": {"line1": "1 34685U 93036YF  25349.86426133  .00003378  00000+0  74772-3 0  9993", "line2": "2 34685  74.0286 142.8414 0014259 247.0593 232.8559 14.57537762885776"}}, "geometry": {"type": "Point", "coordinates": [78.33880106291917, -72.25910996957545]}}, {"type": "Feature", "properties": {"norad_id": 34689, "name": "COSMOS 2251 DEB", "group": "cosmos-2251-debris", "lat": 33.66607626116878, "lon": 26.119668603539587, "alt_km": 1001.4962170932004, "timestamp": "2025-12-16T08:59:43.556579+00:00", "meta": {"OBJECT_NAME": "COSMOS 2251 DEB", "OBJECT_ID": "1993-036YK", "EPOCH": "2025-12-15T15:20:16.539648", "MEAN_MOTION": 14.04491905, "ECCENTRICITY": 0.02275051, "INCLINATION": 74.0901, "RA_OF_ASC_NODE": 218.3502, "ARG_OF_PERICENTER": 286.6099, "MEAN_ANOMALY": 101.262, "EPHEMERIS_TYPE": 0, "CLASSIFICATION_TYPE": "U", "NORAD_CAT_ID": 34689, "ELEMENT_SET_NO": 999, "REV_AT_EPOCH": 84382, "BSTAR": 0.0020174062, "MEAN_MOTION_DOT": 4.031e-05, "MEAN_MOTION_DDOT": 0}, "tle": {"line1": "1 34689U 93036YK  25349.63908032  .00004031  00000+0  20174-2 0  9998", "line2": "2 34689  74.0901 218.3502 0227505 286.6099 101.2620 14.04491905843829"}}, "geometry": {"type": "Point", "coordinates": [26.119668603539587, 33.66607626116878]}}, {"type": "Feature", "properties": {"norad_id": 34721, "name": "COSMOS 2251 DEB", "group": "cosmos-2251-debris", "lat": 69.46714426638673, "lon": 10.291889410464258, "alt_km": 1060.294154491593, "timestamp": "2025-12-16T08:59:43.556589+00:00", "meta": {"OBJECT_NAME": "COSMOS 2251 DEB", "OBJECT_ID": "1993-036YP", "EPOCH": "2025-12-15T16:18:27.707904", "MEAN_MOTION": 13.96867133, "ECCENTRICITY": 0.02234707, "INCLINATION": 73.9233, "RA_OF_ASC_NODE": 321.1486, "ARG_OF_PERICENTER": 259.5791, "MEAN_ANOMALY": 282.2184, "EPHEMERIS_TYPE": 0, "CLASSIFICATION_TYPE": "U", "NORAD_CAT_ID": 34721, "ELEMENT_SET_NO": 999, "REV_AT_EPOCH": 85190, "BSTAR": 0.00096298616, "MEAN_MOTION_DOT": 1.628e-05, "MEAN_MOTION_DDOT": 0}, "tle": {"line1": "1 34721U 93036YP  25349.67948736  .00001628  00000+0  96299-3 0  9995", "line2": "2 34721  73.9233 321.1486 0223470 259.5791 282.2184 13.96867133851904"}}, "geometry": {"type": "Point", "coordinates": [10.291889410464258, 69.46714426638673]}}, {"type": "Feature", "properties": {"norad_id": 34722, "name": "COSMOS 2251 DEB", "group": "cosmos-2251-debris", "lat": 39.785426466146625, "lon": 135.6427342123583, "alt_km": 901.2385520531816, "timestamp": "2025-12-16T08:59:43.556600+00:00", "meta": {"OBJECT_NAME": "COSMOS 2251 DEB", "OBJECT_ID": "1993-036YQ", "EPOCH": "2025-12-15T17:53:03.686784", "MEAN_MOTION": 14.11944912, "ECCENTRICITY": 0.01669879, "INCLINATION": 73.873, "RA_OF_ASC_NODE": 330.7069, "ARG_OF_PERICENTER": 255.7481, "MEAN_ANOMALY": 284.9666, "EPHEMERIS_TYPE": 0, "CLASSIFICATION_TYPE": "U", "NORAD_CAT_ID": 34722, "ELEMENT_SET_NO": 999, "REV_AT_EPOCH": 86287, "BSTAR": 0.00067290308, "MEAN_MOTION_DOT": 1.376e-05, "MEAN_MOTION_DDOT": 0}, "tle": {"line1": "1 34722U 93036YQ  25349.74518156  .00001376  00000+0  67290-3 0  9992", "line2": "2 34722  73.8730 330.7069 0166987 255.7481 284.9666 14.11944912862873"}}, "geometry": {"type": "Point", "coordinates": [135.6427342123583, 39.785426466146625]}}, {"type": "Feature", "properties": {"norad_id": 34726, "name": "COSMOS 2251 DEB", "group": "cosmos-2251-debris", "lat": 63.96964388037002, "lon": 15.29177897036136, "alt_km": 673.2535234441802, "timestamp": "2025-12-16T08:59:43.556610+00:00", "meta": {"OBJECT_NAME": "COSMOS 2251 DEB", "OBJECT_ID": "1993-036YU", "EPOCH": "2025-12-15T09:38:53.921472", "MEAN_MOTION": 14.59493142, "ECCENTRICITY": 0.00418752, "INCLINATION": 74.0289, "RA_OF_ASC_NODE": 341.245, "ARG_OF_PERICENTER": 131.1994, "MEAN_ANOMALY": 229.2794, "EPHEMERIS_TYPE": 0, "CLASSIFICATION_TYPE": "U", "NORAD_CAT_ID": 34726, "ELEMENT_SET_NO": 999, "REV_AT_EPOCH": 88541, "BSTAR": 0.00034099685, "MEAN_MOTION_DOT": 1.608e-05, "MEAN_MOTION_DDOT": 0}, "tle": {"line1": "1 34726U 93036YU  25349.40201298  .00001608  00000+0  34100-3 0  9997", "line2": "2 34726  74.0289 341.2450 0041875 131.1994 229.2794 14.59493142885419"}}, "geometry": {"type": "Point", "coordinates": [15.29177897036136, 63.96964388037002]}}, {"type": "Feature", "properties": {"norad_id": 34728, "name": "COSMOS 2251 DEB", "group": "cosmos-2251-debris", "lat": 72.65438071727166, "lon": -1.8768189050514614, "alt_km": 634.4027454952657, "timestamp": "2025-12-16T08:59:43.556620+00:00", "meta": {"OBJECT_NAME": "COSMOS 2251 DEB", "OBJECT_ID": "1993-036YW", "EPOCH": "2025-12-15T09:42:26.371296", "MEAN_MOTION": 14.70875036, "ECCENTRICITY": 0.00411739, "INCLINATION": 74.0173, "RA_OF_ASC_NODE": 246.5897, "ARG_OF_PERICENTER": 43.4858, "MEAN_ANOMALY": 316.9547, "EPHEMERIS_TYPE": 0, "CLASSIFICATION_TYPE": "U", "NORAD_CAT_ID": 34728, "ELEMENT_SET_NO": 999, "REV_AT_EPOCH": 88839, "BSTAR": 0.00050694603, "MEAN_MOTION_DOT": 3.111e-05, "MEAN_MOTION_DDOT": 0}, "tle": {"line1": "1 34728U 93036YW  25349.40447189  .00003111  00000+0  50695-3 0  9998", "line2": "2 34728  74.0173 246.5897 0041173  43.4858 316.9547 14.70875036888399"}}, "geometry": {"type": "Point", "coordinates": [-1.8768189050514614, 72.65438071727166]}}, {"type": "Feature", "properties": {"norad_id": 34729, "name": "COSMOS 2251 DEB", "group": "cosmos-2251-debris", "lat": -73.70116543235092, "lon": -110.19856091922283, "alt_km": 634.8321122927882, "timestamp": "2025-12-16T08:59:43.556630+00:00", "meta": {"OBJECT_NAME": "COSMOS 2251 DEB", "OBJECT_ID": "1993-036YX", "EPOCH": "2025-12-15T11:25:56.043840", "MEAN_MOTION": 14.82884143, "ECCENTRICITY": 0.00118212, "INCLINATION": 74.0179, "RA_OF_ASC_NODE": 353.0092, "ARG_OF_PERICENTER": 110.3423, "MEAN_ANOMALY": 42.0367, "EPHEMERIS_TYPE": 0, "CLASSIFICATION_TYPE": "U", "NORAD_CAT_ID": 34729, "ELEMENT_SET_NO": 999, "REV_AT_EPOCH": 88498, "BSTAR": 0.0011947194, "MEAN_MOTION_DOT": 9.674e-05, "MEAN_MOTION_DDOT": 0}, "tle": {"line1": "1 34729U 93036YX  25349.47634310  .00009674  00000+0  11947-2 0  9996", "line2": "2 34729  74.0179 353.0092 0011821 110.3423  42.0367 14.82884143884986"}}, "geometry": {"type": "Point", "coordinates": [-110.19856091922283, -73.70116543235092]}}, {"type": "Feature", "properties": {"norad_id": 34732, "name": "COSMOS 2251 DEB", "group": "cosmos-2251-debris", "lat": 26.826578401845968, "lon": 94.71219930139146, "alt_km": 758.2598949702351, "timestamp": "2025-12-16T08:59:43.556641+00:00", "meta": {"OBJECT_NAME": "COSMOS 2251 DEB", "OBJECT_ID": "1993-036ZA", "EPOCH": "2025-12-15T16:58:38.191872", "MEAN_MOTION": 14.47304319, "ECCENTRICITY": 0.00403541, "INCLINATION": 74.0456, "RA_OF_ASC_NODE": 87.6406, "ARG_OF_PERICENTER": 238.1126, "MEAN_ANOMALY": 273.699, "EPHEMERIS_TYPE": 0, "CLASSIFICATION_TYPE": "U", "NORAD_CAT_ID": 34732, "ELEMENT_SET_NO": 999, "REV_AT_EPOCH": 88186, "BSTAR": 0.00014575623, "MEAN_MOTION_DOT": 5.11e-06, "MEAN_MOTION_DDOT": 0}, "tle": {"line1": "1 34732U 93036ZA  25349.70738648  .00000511  00000+0  14576-3 0  9998", "line2": "2 34732  74.0456  87.6406 0040354 238.1126 273.6990 14.47304319881860"}}, "geometry": {"type": "Point", "coordinates": [94.71219930139146, 26.826578401845968]}}, {"type": "Feature", "properties": {"norad_id": 34736, "name": "COSMOS 2251 DEB", "group": "cosmos-2251-debris", "lat": 45.69038608777557, "lon": 45.33906990988453, "alt_km": 405.8988513196655, "timestamp": "2025-12-16T08:59:43.556651+00:00", "meta": {"OBJECT_NAME": "COSMOS 2251 DEB", "OBJECT_ID": "1993-036ZE", "EPOCH": "2025-12-15T20:24:01.411776", "MEAN_MOTION": 15.50275013, "ECCENTRICITY": 0.0016751, "INCLINATION": 74.0003, "RA_OF_ASC_NODE": 29.3989, "ARG_OF_PERICENTER": 343.5471, "MEAN_ANOMALY": 16.5196, "EPHEMERIS_TYPE": 0, "CLASSIFICATION_TYPE": "U", "NORAD_CAT_ID": 34736, "ELEMENT_SET_NO": 999, "REV_AT_EPOCH": 88496, "BSTAR": 0.0066861482, "MEAN_MOTION_DOT": 0.00400202, "MEAN_MOTION_DDOT": 0}, "tle": {"line1": "1 34736U 93036ZE  25349.85001634  .00400202  00000+0  66861-2 0  9990", "line2": "2 34736  74.0003  29.3989 0016751 343.5471  16.5196 15.50275013884968"}}, "geometry": {"type": "Point", "coordinates": [45.33906990988453, 45.69038608777557]}}]}